[{"Area_Code": "E06000031", "Area": "Peterborough", "Region_Code": "E12000006", "Region": "East", "Electorate": 120892}, {"Area_Code": "E06000032", "Area": "Luton", "Region_Code": "E12000006", "Region": "East", "Electorate": 127612}, {"Area_Code": "E06000033", "Area": "Southend-on-Sea", "Region_Code": "E12000006", "Region": "East", "Electorate": 128856}, {"Area_Code": "E06000034", "Area": "Thurrock", "Region_Code": "E12000006", "Region": "East", "Electorate": 109897}, {"Area_Code": "E06000055", "Area": "Bedford", "Region_Code": "E12000006", "Region": "East", "Electorate": 119530}, {"Area_Code": "E06000056", "Area": "Central Bedfordshire", "Region_Code": "E12000006", "Region": "East", "Electorate": 204004}, {"Area_Code": "E07000008", "Area": "Cambridge", "Region_Code": "E12000006", "Region": "East", "Electorate": 80108}, {"Area_Code": "E07000009", "Area": "East Cambridgeshire", "Region_Code": "E12000006", "Region": "East", "Electorate": 62435}, {"Area_Code": "E07000010", "Area": "Fenland", "Region_Code": "E12000006", "Region": "East", "Electorate": 71447}, {"Area_Code": "E07000011", "Area": "Huntingdonshire", "Region_Code": "E12000006", "Region": "East", "Electorate": 128486}, {"Area_Code": "E07000012", "Area": "South Cambridgeshire", "Region_Code": "E12000006", "Region": "East", "Electorate": 114830}, {"Area_Code": "E07000066", "Area": "Basildon", "Region_Code": "E12000006", "Region": "East", "Electorate": 132771}, {"Area_Code": "E07000067", "Area": "Braintree", "Region_Code": "E12000006", "Region": "East", "Electorate": 112562}, {"Area_Code": "E07000068", "Area": "Brentwood", "Region_Code": "E12000006", "Region": "East", "Electorate": 58777}, {"Area_Code": "E07000069", "Area": "Castle Point", "Region_Code": "E12000006", "Region": "East", "Electorate": 68860}, {"Area_Code": "E07000070", "Area": "Chelmsford", "Region_Code": "E12000006", "Region": "East", "Electorate": 129971}, {"Area_Code": "E07000071", "Area": "Colchester", "Region_Code": "E12000006", "Region": "East", "Electorate": 127520}, {"Area_Code": "E07000072", "Area": "Epping Forest", "Region_Code": "E12000006", "Region": "East", "Electorate": 100016}, {"Area_Code": "E07000073", "Area": "Harlow", "Region_Code": "E12000006", "Region": "East", "Electorate": 59124}, {"Area_Code": "E07000074", "Area": "Maldon", "Region_Code": "E12000006", "Region": "East", "Electorate": 49073}, {"Area_Code": "E07000075", "Area": "Rochford", "Region_Code": "E12000006", "Region": "East", "Electorate": 66589}, {"Area_Code": "E07000076", "Area": "Tendring", "Region_Code": "E12000006", "Region": "East", "Electorate": 111167}, {"Area_Code": "E07000077", "Area": "Uttlesford", "Region_Code": "E12000006", "Region": "East", "Electorate": 64735}, {"Area_Code": "E07000095", "Area": "Broxbourne", "Region_Code": "E12000006", "Region": "East", "Electorate": 68997}, {"Area_Code": "E07000096", "Area": "Dacorum", "Region_Code": "E12000006", "Region": "East", "Electorate": 108965}, {"Area_Code": "E07000098", "Area": "Hertsmere", "Region_Code": "E12000006", "Region": "East", "Electorate": 73295}, {"Area_Code": "E07000099", "Area": "North Hertfordshire", "Region_Code": "E12000006", "Region": "East", "Electorate": 99316}, {"Area_Code": "E07000102", "Area": "Three Rivers", "Region_Code": "E12000006", "Region": "East", "Electorate": 67380}, {"Area_Code": "E07000103", "Area": "Watford", "Region_Code": "E12000006", "Region": "East", "Electorate": 65060}, {"Area_Code": "E07000143", "Area": "Breckland", "Region_Code": "E12000006", "Region": "East", "Electorate": 98989}, {"Area_Code": "E07000144", "Area": "Broadland", "Region_Code": "E12000006", "Region": "East", "Electorate": 99254}, {"Area_Code": "E07000145", "Area": "Great Yarmouth", "Region_Code": "E12000006", "Region": "East", "Electorate": 72634}, {"Area_Code": "E07000146", "Area": "King's Lynn and West Norfolk", "Region_Code": "E12000006", "Region": "East", "Electorate": 113884}, {"Area_Code": "E07000147", "Area": "North Norfolk", "Region_Code": "E12000006", "Region": "East", "Electorate": 83065}, {"Area_Code": "E07000148", "Area": "Norwich", "Region_Code": "E12000006", "Region": "East", "Electorate": 96091}, {"Area_Code": "E07000149", "Area": "South Norfolk", "Region_Code": "E12000006", "Region": "East", "Electorate": 102395}, {"Area_Code": "E07000200", "Area": "Babergh", "Region_Code": "E12000006", "Region": "East", "Electorate": 70628}, {"Area_Code": "E07000201", "Area": "Forest Heath", "Region_Code": "E12000006", "Region": "East", "Electorate": 38527}, {"Area_Code": "E07000202", "Area": "Ipswich", "Region_Code": "E12000006", "Region": "East", "Electorate": 91574}, {"Area_Code": "E07000203", "Area": "Mid Suffolk", "Region_Code": "E12000006", "Region": "East", "Electorate": 78325}, {"Area_Code": "E07000204", "Area": "St Edmundsbury", "Region_Code": "E12000006", "Region": "East", "Electorate": 81148}, {"Area_Code": "E07000205", "Area": "Suffolk Coastal", "Region_Code": "E12000006", "Region": "East", "Electorate": 98195}, {"Area_Code": "E07000206", "Area": "Waveney", "Region_Code": "E12000006", "Region": "East", "Electorate": 90391}, {"Area_Code": "E07000240", "Area": "St Albans", "Region_Code": "E12000006", "Region": "East", "Electorate": 104859}, {"Area_Code": "E07000241", "Area": "Welwyn Hatfield", "Region_Code": "E12000006", "Region": "East", "Electorate": 78146}, {"Area_Code": "E07000242", "Area": "East Hertfordshire", "Region_Code": "E12000006", "Region": "East", "Electorate": 106260}, {"Area_Code": "E07000243", "Area": "Stevenage", "Region_Code": "E12000006", "Region": "East", "Electorate": 62156}, {"Area_Code": "E06000015", "Area": "Derby", "Region_Code": "E12000004", "Region": "East Midlands", "Electorate": 171246}, {"Area_Code": "E06000016", "Area": "Leicester", "Region_Code": "E12000004", "Region": "East Midlands", "Electorate": 213819}, {"Area_Code": "E06000017", "Area": "Rutland", "Region_Code": "E12000004", "Region": "East Midlands", "Electorate": 29390}, {"Area_Code": "E06000018", "Area": "Nottingham", "Region_Code": "E12000004", "Region": "East Midlands", "Electorate": 195394}, {"Area_Code": "E07000032", "Area": "Amber Valley", "Region_Code": "E12000004", "Region": "East Midlands", "Electorate": 96760}, {"Area_Code": "E07000033", "Area": "Bolsover", "Region_Code": "E12000004", "Region": "East Midlands", "Electorate": 58063}, {"Area_Code": "E07000034", "Area": "Chesterfield", "Region_Code": "E12000004", "Region": "East Midlands", "Electorate": 79905}, {"Area_Code": "E07000035", "Area": "Derbyshire Dales", "Region_Code": "E12000004", "Region": "East Midlands", "Electorate": 57075}, {"Area_Code": "E07000036", "Area": "Erewash", "Region_Code": "E12000004", "Region": "East Midlands", "Electorate": 87596}, {"Area_Code": "E07000037", "Area": "High Peak", "Region_Code": "E12000004", "Region": "East Midlands", "Electorate": 72487}, {"Area_Code": "E07000038", "Area": "North East Derbyshire", "Region_Code": "E12000004", "Region": "East Midlands", "Electorate": 78855}, {"Area_Code": "E07000039", "Area": "South Derbyshire", "Region_Code": "E12000004", "Region": "East Midlands", "Electorate": 73856}, {"Area_Code": "E07000129", "Area": "Blaby", "Region_Code": "E12000004", "Region": "East Midlands", "Electorate": 73832}, {"Area_Code": "E07000130", "Area": "Charnwood", "Region_Code": "E12000004", "Region": "East Midlands", "Electorate": 133780}, {"Area_Code": "E07000131", "Area": "Harborough", "Region_Code": "E12000004", "Region": "East Midlands", "Electorate": 67420}, {"Area_Code": "E07000132", "Area": "Hinckley and Bosworth", "Region_Code": "E12000004", "Region": "East Midlands", "Electorate": 85305}, {"Area_Code": "E07000133", "Area": "Melton", "Region_Code": "E12000004", "Region": "East Midlands", "Electorate": 37273}, {"Area_Code": "E07000134", "Area": "North West Leicestershire", "Region_Code": "E12000004", "Region": "East Midlands", "Electorate": 73944}, {"Area_Code": "E07000135", "Area": "Oadby and Wigston", "Region_Code": "E12000004", "Region": "East Midlands", "Electorate": 42684}, {"Area_Code": "E07000136", "Area": "Boston", "Region_Code": "E12000004", "Region": "East Midlands", "Electorate": 39363}, {"Area_Code": "E07000137", "Area": "East Lindsey", "Region_Code": "E12000004", "Region": "East Midlands", "Electorate": 107009}, {"Area_Code": "E07000138", "Area": "Lincoln", "Region_Code": "E12000004", "Region": "East Midlands", "Electorate": 63351}, {"Area_Code": "E07000139", "Area": "North Kesteven", "Region_Code": "E12000004", "Region": "East Midlands", "Electorate": 86468}, {"Area_Code": "E07000140", "Area": "South Holland", "Region_Code": "E12000004", "Region": "East Midlands", "Electorate": 65701}, {"Area_Code": "E07000141", "Area": "South Kesteven", "Region_Code": "E12000004", "Region": "East Midlands", "Electorate": 105457}, {"Area_Code": "E07000142", "Area": "West Lindsey", "Region_Code": "E12000004", "Region": "East Midlands", "Electorate": 73499}, {"Area_Code": "E07000150", "Area": "Corby", "Region_Code": "E12000004", "Region": "East Midlands", "Electorate": 43313}, {"Area_Code": "E07000151", "Area": "Daventry", "Region_Code": "E12000004", "Region": "East Midlands", "Electorate": 61004}, {"Area_Code": "E07000152", "Area": "East Northamptonshire", "Region_Code": "E12000004", "Region": "East Midlands", "Electorate": 68334}, {"Area_Code": "E07000153", "Area": "Kettering", "Region_Code": "E12000004", "Region": "East Midlands", "Electorate": 70570}, {"Area_Code": "E07000154", "Area": "Northampton", "Region_Code": "E12000004", "Region": "East Midlands", "Electorate": 144948}, {"Area_Code": "E07000155", "Area": "South Northamptonshire", "Region_Code": "E12000004", "Region": "East Midlands", "Electorate": 71309}, {"Area_Code": "E07000156", "Area": "Wellingborough", "Region_Code": "E12000004", "Region": "East Midlands", "Electorate": 54572}, {"Area_Code": "E07000170", "Area": "Ashfield", "Region_Code": "E12000004", "Region": "East Midlands", "Electorate": 91916}, {"Area_Code": "E07000171", "Area": "Bassetlaw", "Region_Code": "E12000004", "Region": "East Midlands", "Electorate": 85547}, {"Area_Code": "E07000172", "Area": "Broxtowe", "Region_Code": "E12000004", "Region": "East Midlands", "Electorate": 83593}, {"Area_Code": "E07000173", "Area": "Gedling", "Region_Code": "E12000004", "Region": "East Midlands", "Electorate": 88298}, {"Area_Code": "E07000174", "Area": "Mansfield", "Region_Code": "E12000004", "Region": "East Midlands", "Electorate": 77624}, {"Area_Code": "E07000175", "Area": "Newark and Sherwood", "Region_Code": "E12000004", "Region": "East Midlands", "Electorate": 87338}, {"Area_Code": "E07000176", "Area": "Rushcliffe", "Region_Code": "E12000004", "Region": "East Midlands", "Electorate": 86401}, {"Area_Code": "E09000001", "Area": "City of London", "Region_Code": "E12000007", "Region": "London", "Electorate": 5987}, {"Area_Code": "E09000002", "Area": "Barking and Dagenham", "Region_Code": "E12000007", "Region": "London", "Electorate": 115812}, {"Area_Code": "E09000003", "Area": "Barnet", "Region_Code": "E12000007", "Region": "London", "Electorate": 223467}, {"Area_Code": "E09000004", "Area": "Bexley", "Region_Code": "E12000007", "Region": "London", "Electorate": 170779}, {"Area_Code": "E09000005", "Area": "Brent", "Region_Code": "E12000007", "Region": "London", "Electorate": 186793}, {"Area_Code": "E09000006", "Area": "Bromley", "Region_Code": "E12000007", "Region": "London", "Electorate": 231473}, {"Area_Code": "E09000007", "Area": "Camden", "Region_Code": "E12000007", "Region": "London", "Electorate": 145425}, {"Area_Code": "E09000008", "Area": "Croydon", "Region_Code": "E12000007", "Region": "London", "Electorate": 245349}, {"Area_Code": "E09000009", "Area": "Ealing", "Region_Code": "E12000007", "Region": "London", "Electorate": 212991}, {"Area_Code": "E09000010", "Area": "Enfield", "Region_Code": "E12000007", "Region": "London", "Electorate": 198387}, {"Area_Code": "E09000011", "Area": "Greenwich", "Region_Code": "E12000007", "Region": "London", "Electorate": 168967}, {"Area_Code": "E09000012", "Area": "Hackney", "Region_Code": "E12000007", "Region": "London", "Electorate": 163284}, {"Area_Code": "E09000013", "Area": "Hammersmith and Fulham", "Region_Code": "E12000007", "Region": "London", "Electorate": 114863}, {"Area_Code": "E09000014", "Area": "Haringey", "Region_Code": "E12000007", "Region": "London", "Electorate": 150098}, {"Area_Code": "E09000015", "Area": "Harrow", "Region_Code": "E12000007", "Region": "London", "Electorate": 162397}, {"Area_Code": "E09000016", "Area": "Havering", "Region_Code": "E12000007", "Region": "London", "Electorate": 183082}, {"Area_Code": "E09000017", "Area": "Hillingdon", "Region_Code": "E12000007", "Region": "London", "Electorate": 193033}, {"Area_Code": "E09000018", "Area": "Hounslow", "Region_Code": "E12000007", "Region": "London", "Electorate": 165050}, {"Area_Code": "E09000019", "Area": "Islington", "Region_Code": "E12000007", "Region": "London", "Electorate": 144514}, {"Area_Code": "E09000020", "Area": "Kensington and Chelsea", "Region_Code": "E12000007", "Region": "London", "Electorate": 83042}, {"Area_Code": "E09000021", "Area": "Kingston upon Thames", "Region_Code": "E12000007", "Region": "London", "Electorate": 108838}, {"Area_Code": "E09000022", "Area": "Lambeth", "Region_Code": "E12000007", "Region": "London", "Electorate": 210800}, {"Area_Code": "E09000023", "Area": "Lewisham", "Region_Code": "E12000007", "Region": "London", "Electorate": 197514}, {"Area_Code": "E09000024", "Area": "Merton", "Region_Code": "E12000007", "Region": "London", "Electorate": 136352}, {"Area_Code": "E09000025", "Area": "Newham", "Region_Code": "E12000007", "Region": "London", "Electorate": 176985}, {"Area_Code": "E09000026", "Area": "Redbridge", "Region_Code": "E12000007", "Region": "London", "Electorate": 189843}, {"Area_Code": "E09000027", "Area": "Richmond upon Thames", "Region_Code": "E12000007", "Region": "London", "Electorate": 132632}, {"Area_Code": "E09000028", "Area": "Southwark", "Region_Code": "E12000007", "Region": "London", "Electorate": 195875}, {"Area_Code": "E09000029", "Area": "Sutton", "Region_Code": "E12000007", "Region": "London", "Electorate": 140288}, {"Area_Code": "E09000030", "Area": "Tower Hamlets", "Region_Code": "E12000007", "Region": "London", "Electorate": 167820}, {"Area_Code": "E09000031", "Area": "Waltham Forest", "Region_Code": "E12000007", "Region": "London", "Electorate": 162983}, {"Area_Code": "E09000032", "Area": "Wandsworth", "Region_Code": "E12000007", "Region": "London", "Electorate": 219521}, {"Area_Code": "E09000033", "Area": "Westminster", "Region_Code": "E12000007", "Region": "London", "Electorate": 120524}, {"Area_Code": "E06000001", "Area": "Hartlepool", "Region_Code": "E12000001", "Region": "North East", "Electorate": 70341}, {"Area_Code": "E06000002", "Area": "Middlesbrough", "Region_Code": "E12000001", "Region": "North East", "Electorate": 94612}, {"Area_Code": "E06000003", "Area": "Redcar and Cleveland", "Region_Code": "E12000001", "Region": "North East", "Electorate": 103529}, {"Area_Code": "E06000004", "Area": "Stockton-on-Tees", "Region_Code": "E12000001", "Region": "North East", "Electorate": 141486}, {"Area_Code": "E06000005", "Area": "Darlington", "Region_Code": "E12000001", "Region": "North East", "Electorate": 77662}, {"Area_Code": "E06000047", "Area": "County Durham", "Region_Code": "E12000001", "Region": "North East", "Electorate": 389507}, {"Area_Code": "E06000057", "Area": "Northumberland", "Region_Code": "E12000001", "Region": "North East", "Electorate": 240496}, {"Area_Code": "E08000021", "Area": "Newcastle upon Tyne", "Region_Code": "E12000001", "Region": "North East", "Electorate": 190735}, {"Area_Code": "E08000022", "Area": "North Tyneside", "Region_Code": "E12000001", "Region": "North East", "Electorate": 156993}, {"Area_Code": "E08000023", "Area": "South Tyneside", "Region_Code": "E12000001", "Region": "North East", "Electorate": 115893}, {"Area_Code": "E08000024", "Area": "Sunderland", "Region_Code": "E12000001", "Region": "North East", "Electorate": 207221}, {"Area_Code": "E08000037", "Area": "Gateshead", "Region_Code": "E12000001", "Region": "North East", "Electorate": 145866}, {"Area_Code": "E06000006", "Area": "Halton", "Region_Code": "E12000002", "Region": "North West", "Electorate": 95289}, {"Area_Code": "E06000007", "Area": "Warrington", "Region_Code": "E12000002", "Region": "North West", "Electorate": 157042}, {"Area_Code": "E06000008", "Area": "Blackburn with Darwen", "Region_Code": "E12000002", "Region": "North West", "Electorate": 100117}, {"Area_Code": "E06000009", "Area": "Blackpool", "Region_Code": "E12000002", "Region": "North West", "Electorate": 102354}, {"Area_Code": "E06000049", "Area": "Cheshire East", "Region_Code": "E12000002", "Region": "North West", "Electorate": 285957}, {"Area_Code": "E06000050", "Area": "Cheshire West and Chester", "Region_Code": "E12000002", "Region": "North West", "Electorate": 259878}, {"Area_Code": "E07000026", "Area": "Allerdale", "Region_Code": "E12000002", "Region": "North West", "Electorate": 74426}, {"Area_Code": "E07000027", "Area": "Barrow-in-Furness", "Region_Code": "E12000002", "Region": "North West", "Electorate": 53194}, {"Area_Code": "E07000028", "Area": "Carlisle", "Region_Code": "E12000002", "Region": "North West", "Electorate": 80124}, {"Area_Code": "E07000029", "Area": "Copeland", "Region_Code": "E12000002", "Region": "North West", "Electorate": 54206}, {"Area_Code": "E07000030", "Area": "Eden", "Region_Code": "E12000002", "Region": "North West", "Electorate": 41872}, {"Area_Code": "E07000031", "Area": "South Lakeland", "Region_Code": "E12000002", "Region": "North West", "Electorate": 81948}, {"Area_Code": "E07000117", "Area": "Burnley", "Region_Code": "E12000002", "Region": "North West", "Electorate": 64461}, {"Area_Code": "E07000118", "Area": "Chorley", "Region_Code": "E12000002", "Region": "North West", "Electorate": 84159}, {"Area_Code": "E07000119", "Area": "Fylde", "Region_Code": "E12000002", "Region": "North West", "Electorate": 61174}, {"Area_Code": "E07000120", "Area": "Hyndburn", "Region_Code": "E12000002", "Region": "North West", "Electorate": 62042}, {"Area_Code": "E07000121", "Area": "Lancaster", "Region_Code": "E12000002", "Region": "North West", "Electorate": 100567}, {"Area_Code": "E07000122", "Area": "Pendle", "Region_Code": "E12000002", "Region": "North West", "Electorate": 64534}, {"Area_Code": "E07000123", "Area": "Preston", "Region_Code": "E12000002", "Region": "North West", "Electorate": 94284}, {"Area_Code": "E07000124", "Area": "Ribble Valley", "Region_Code": "E12000002", "Region": "North West", "Electorate": 46148}, {"Area_Code": "E07000125", "Area": "Rossendale", "Region_Code": "E12000002", "Region": "North West", "Electorate": 52750}, {"Area_Code": "E07000126", "Area": "South Ribble", "Region_Code": "E12000002", "Region": "North West", "Electorate": 84573}, {"Area_Code": "E07000127", "Area": "West Lancashire", "Region_Code": "E12000002", "Region": "North West", "Electorate": 85834}, {"Area_Code": "E07000128", "Area": "Wyre", "Region_Code": "E12000002", "Region": "North West", "Electorate": 84471}, {"Area_Code": "E08000001", "Area": "Bolton", "Region_Code": "E12000002", "Region": "North West", "Electorate": 197109}, {"Area_Code": "E08000002", "Area": "Bury", "Region_Code": "E12000002", "Region": "North West", "Electorate": 141600}, {"Area_Code": "E08000003", "Area": "Manchester", "Region_Code": "E12000002", "Region": "North West", "Electorate": 338064}, {"Area_Code": "E08000004", "Area": "Oldham", "Region_Code": "E12000002", "Region": "North West", "Electorate": 158084}, {"Area_Code": "E08000005", "Area": "Rochdale", "Region_Code": "E12000002", "Region": "North West", "Electorate": 156621}, {"Area_Code": "E08000006", "Area": "Salford", "Region_Code": "E12000002", "Region": "North West", "Electorate": 173668}, {"Area_Code": "E08000007", "Area": "Stockport", "Region_Code": "E12000002", "Region": "North West", "Electorate": 221162}, {"Area_Code": "E08000008", "Area": "Tameside", "Region_Code": "E12000002", "Region": "North West", "Electorate": 168047}, {"Area_Code": "E08000009", "Area": "Trafford", "Region_Code": "E12000002", "Region": "North West", "Electorate": 165294}, {"Area_Code": "E08000010", "Area": "Wigan", "Region_Code": "E12000002", "Region": "North West", "Electorate": 235982}, {"Area_Code": "E08000011", "Area": "Knowsley", "Region_Code": "E12000002", "Region": "North West", "Electorate": 111647}, {"Area_Code": "E08000012", "Area": "Liverpool", "Region_Code": "E12000002", "Region": "North West", "Electorate": 317924}, {"Area_Code": "E08000013", "Area": "St. Helens", "Region_Code": "E12000002", "Region": "North West", "Electorate": 136096}, {"Area_Code": "E08000014", "Area": "Sefton", "Region_Code": "E12000002", "Region": "North West", "Electorate": 206298}, {"Area_Code": "E08000015", "Area": "Wirral", "Region_Code": "E12000002", "Region": "North West", "Electorate": 242568}, {"Area_Code": "N92000002", "Area": "Northern Ireland", "Region_Code": "N92000002", "Region": "Northern Ireland", "Electorate": 1260955}, {"Area_Code": "S12000005", "Area": "Clackmannanshire", "Region_Code": "S92000003", "Region": "Scotland", "Electorate": 37841}, {"Area_Code": "S12000006", "Area": "Dumfries and Galloway", "Region_Code": "S92000003", "Region": "Scotland", "Electorate": 115837}, {"Area_Code": "S12000008", "Area": "East Ayrshire", "Region_Code": "S92000003", "Region": "Scotland", "Electorate": 91977}, {"Area_Code": "S12000010", "Area": "East Lothian", "Region_Code": "S92000003", "Region": "Scotland", "Electorate": 77788}, {"Area_Code": "S12000011", "Area": "East Renfrewshire", "Region_Code": "S92000003", "Region": "Scotland", "Electorate": 69575}, {"Area_Code": "S12000013", "Area": "Eilean Siar", "Region_Code": "S92000003", "Region": "Scotland", "Electorate": 21259}, {"Area_Code": "S12000014", "Area": "Falkirk", "Region_Code": "S92000003", "Region": "Scotland", "Electorate": 117392}, {"Area_Code": "S12000015", "Area": "Fife", "Region_Code": "S92000003", "Region": "Scotland", "Electorate": 272995}, {"Area_Code": "S12000017", "Area": "Highland", "Region_Code": "S92000003", "Region": "Scotland", "Electorate": 175563}, {"Area_Code": "S12000018", "Area": "Inverclyde", "Region_Code": "S92000003", "Region": "Scotland", "Electorate": 58624}, {"Area_Code": "S12000019", "Area": "Midlothian", "Region_Code": "S92000003", "Region": "Scotland", "Electorate": 66758}, {"Area_Code": "S12000020", "Area": "Moray", "Region_Code": "S92000003", "Region": "Scotland", "Electorate": 71370}, {"Area_Code": "S12000021", "Area": "North Ayrshire", "Region_Code": "S92000003", "Region": "Scotland", "Electorate": 104572}, {"Area_Code": "S12000023", "Area": "Orkney Islands", "Region_Code": "S92000003", "Region": "Scotland", "Electorate": 16658}, {"Area_Code": "S12000024", "Area": "Perth and Kinross", "Region_Code": "S92000003", "Region": "Scotland", "Electorate": 110224}, {"Area_Code": "S12000026", "Area": "Scottish Borders", "Region_Code": "S92000003", "Region": "Scotland", "Electorate": 88440}, {"Area_Code": "S12000027", "Area": "Shetland Islands", "Region_Code": "S92000003", "Region": "Scotland", "Electorate": 17375}, {"Area_Code": "S12000028", "Area": "South Ayrshire", "Region_Code": "S92000003", "Region": "Scotland", "Electorate": 88116}, {"Area_Code": "S12000029", "Area": "South Lanarkshire", "Region_Code": "S92000003", "Region": "Scotland", "Electorate": 248949}, {"Area_Code": "S12000030", "Area": "Stirling", "Region_Code": "S92000003", "Region": "Scotland", "Electorate": 66100}, {"Area_Code": "S12000033", "Area": "Aberdeen City", "Region_Code": "S92000003", "Region": "Scotland", "Electorate": 154266}, {"Area_Code": "S12000034", "Area": "Aberdeenshire", "Region_Code": "S92000003", "Region": "Scotland", "Electorate": 196809}, {"Area_Code": "S12000035", "Area": "Argyll and Bute", "Region_Code": "S92000003", "Region": "Scotland", "Electorate": 66642}, {"Area_Code": "S12000036", "Area": "City of Edinburgh", "Region_Code": "S92000003", "Region": "Scotland", "Electorate": 346073}, {"Area_Code": "S12000038", "Area": "Renfrewshire", "Region_Code": "S92000003", "Region": "Scotland", "Electorate": 127294}, {"Area_Code": "S12000039", "Area": "West Dunbartonshire", "Region_Code": "S92000003", "Region": "Scotland", "Electorate": 67595}, {"Area_Code": "S12000040", "Area": "West Lothian", "Region_Code": "S92000003", "Region": "Scotland", "Electorate": 130925}, {"Area_Code": "S12000041", "Area": "Angus", "Region_Code": "S92000003", "Region": "Scotland", "Electorate": 87137}, {"Area_Code": "S12000042", "Area": "Dundee City", "Region_Code": "S92000003", "Region": "Scotland", "Electorate": 105554}, {"Area_Code": "S12000044", "Area": "North Lanarkshire", "Region_Code": "S92000003", "Region": "Scotland", "Electorate": 254567}, {"Area_Code": "S12000045", "Area": "East Dunbartonshire", "Region_Code": "S92000003", "Region": "Scotland", "Electorate": 83031}, {"Area_Code": "S12000046", "Area": "Glasgow City", "Region_Code": "S92000003", "Region": "Scotland", "Electorate": 449806}, {"Area_Code": "E06000035", "Area": "Medway", "Region_Code": "E12000008", "Region": "South East", "Electorate": 192524}, {"Area_Code": "E06000036", "Area": "Bracknell Forest", "Region_Code": "E12000008", "Region": "South East", "Electorate": 85298}, {"Area_Code": "E06000037", "Area": "West Berkshire", "Region_Code": "E12000008", "Region": "South East", "Electorate": 116757}, {"Area_Code": "E06000038", "Area": "Reading", "Region_Code": "E12000008", "Region": "South East", "Electorate": 103172}, {"Area_Code": "E06000039", "Area": "Slough", "Region_Code": "E12000008", "Region": "South East", "Electorate": 87873}, {"Area_Code": "E06000040", "Area": "Windsor and Maidenhead", "Region_Code": "E12000008", "Region": "South East", "Electorate": 102665}, {"Area_Code": "E06000041", "Area": "Wokingham", "Region_Code": "E12000008", "Region": "South East", "Electorate": 121891}, {"Area_Code": "E06000042", "Area": "Milton Keynes", "Region_Code": "E12000008", "Region": "South East", "Electorate": 177211}, {"Area_Code": "E06000043", "Area": "Brighton and Hove", "Region_Code": "E12000008", "Region": "South East", "Electorate": 198293}, {"Area_Code": "E06000044", "Area": "Portsmouth", "Region_Code": "E12000008", "Region": "South East", "Electorate": 140517}, {"Area_Code": "E06000045", "Area": "Southampton", "Region_Code": "E12000008", "Region": "South East", "Electorate": 158171}, {"Area_Code": "E06000046", "Area": "Isle of Wight", "Region_Code": "E12000008", "Region": "South East", "Electorate": 109844}, {"Area_Code": "E07000004", "Area": "Aylesbury Vale", "Region_Code": "E12000008", "Region": "South East", "Electorate": 136235}, {"Area_Code": "E07000005", "Area": "Chiltern", "Region_Code": "E12000008", "Region": "South East", "Electorate": 70185}, {"Area_Code": "E07000006", "Area": "South Bucks", "Region_Code": "E12000008", "Region": "South East", "Electorate": 52194}, {"Area_Code": "E07000007", "Area": "Wycombe", "Region_Code": "E12000008", "Region": "South East", "Electorate": 125260}, {"Area_Code": "E07000061", "Area": "Eastbourne", "Region_Code": "E12000008", "Region": "South East", "Electorate": 71726}, {"Area_Code": "E07000062", "Area": "Hastings", "Region_Code": "E12000008", "Region": "South East", "Electorate": 61957}, {"Area_Code": "E07000063", "Area": "Lewes", "Region_Code": "E12000008", "Region": "South East", "Electorate": 76428}, {"Area_Code": "E07000064", "Area": "Rother", "Region_Code": "E12000008", "Region": "South East", "Electorate": 72755}, {"Area_Code": "E07000065", "Area": "Wealden", "Region_Code": "E12000008", "Region": "South East", "Electorate": 121141}, {"Area_Code": "E07000084", "Area": "Basingstoke and Deane", "Region_Code": "E12000008", "Region": "South East", "Electorate": 128677}, {"Area_Code": "E07000085", "Area": "East Hampshire", "Region_Code": "E12000008", "Region": "South East", "Electorate": 90588}, {"Area_Code": "E07000086", "Area": "Eastleigh", "Region_Code": "E12000008", "Region": "South East", "Electorate": 97280}, {"Area_Code": "E07000087", "Area": "Fareham", "Region_Code": "E12000008", "Region": "South East", "Electorate": 90175}, {"Area_Code": "E07000088", "Area": "Gosport", "Region_Code": "E12000008", "Region": "South East", "Electorate": 62781}, {"Area_Code": "E07000089", "Area": "Hart", "Region_Code": "E12000008", "Region": "South East", "Electorate": 69946}, {"Area_Code": "E07000090", "Area": "Havant", "Region_Code": "E12000008", "Region": "South East", "Electorate": 95366}, {"Area_Code": "E07000091", "Area": "New Forest", "Region_Code": "E12000008", "Region": "South East", "Electorate": 141061}, {"Area_Code": "E07000092", "Area": "Rushmoor", "Region_Code": "E12000008", "Region": "South East", "Electorate": 65790}, {"Area_Code": "E07000093", "Area": "Test Valley", "Region_Code": "E12000008", "Region": "South East", "Electorate": 94559}, {"Area_Code": "E07000094", "Area": "Winchester", "Region_Code": "E12000008", "Region": "South East", "Electorate": 89595}, {"Area_Code": "E07000105", "Area": "Ashford", "Region_Code": "E12000008", "Region": "South East", "Electorate": 90516}, {"Area_Code": "E07000106", "Area": "Canterbury", "Region_Code": "E12000008", "Region": "South East", "Electorate": 109399}, {"Area_Code": "E07000107", "Area": "Dartford", "Region_Code": "E12000008", "Region": "South East", "Electorate": 73951}, {"Area_Code": "E07000108", "Area": "Dover", "Region_Code": "E12000008", "Region": "South East", "Electorate": 85011}, {"Area_Code": "E07000109", "Area": "Gravesham", "Region_Code": "E12000008", "Region": "South East", "Electorate": 72808}, {"Area_Code": "E07000110", "Area": "Maidstone", "Region_Code": "E12000008", "Region": "South East", "Electorate": 117298}, {"Area_Code": "E07000111", "Area": "Sevenoaks", "Region_Code": "E12000008", "Region": "South East", "Electorate": 87253}, {"Area_Code": "E07000112", "Area": "Shepway", "Region_Code": "E12000008", "Region": "South East", "Electorate": 80879}, {"Area_Code": "E07000113", "Area": "Swale", "Region_Code": "E12000008", "Region": "South East", "Electorate": 102209}, {"Area_Code": "E07000114", "Area": "Thanet", "Region_Code": "E12000008", "Region": "South East", "Electorate": 99108}, {"Area_Code": "E07000115", "Area": "Tonbridge and Malling", "Region_Code": "E12000008", "Region": "South East", "Electorate": 93019}, {"Area_Code": "E07000116", "Area": "Tunbridge Wells", "Region_Code": "E12000008", "Region": "South East", "Electorate": 82181}, {"Area_Code": "E07000177", "Area": "Cherwell", "Region_Code": "E12000008", "Region": "South East", "Electorate": 108342}, {"Area_Code": "E07000178", "Area": "Oxford", "Region_Code": "E12000008", "Region": "South East", "Electorate": 97331}, {"Area_Code": "E07000179", "Area": "South Oxfordshire", "Region_Code": "E12000008", "Region": "South East", "Electorate": 104231}, {"Area_Code": "E07000180", "Area": "Vale of White Horse", "Region_Code": "E12000008", "Region": "South East", "Electorate": 94487}, {"Area_Code": "E07000181", "Area": "West Oxfordshire", "Region_Code": "E12000008", "Region": "South East", "Electorate": 82441}, {"Area_Code": "E07000207", "Area": "Elmbridge", "Region_Code": "E12000008", "Region": "South East", "Electorate": 98613}, {"Area_Code": "E07000208", "Area": "Epsom and Ewell", "Region_Code": "E12000008", "Region": "South East", "Electorate": 56382}, {"Area_Code": "E07000209", "Area": "Guildford", "Region_Code": "E12000008", "Region": "South East", "Electorate": 102209}, {"Area_Code": "E07000210", "Area": "Mole Valley", "Region_Code": "E12000008", "Region": "South East", "Electorate": 66730}, {"Area_Code": "E07000211", "Area": "Reigate and Banstead", "Region_Code": "E12000008", "Region": "South East", "Electorate": 103731}, {"Area_Code": "E07000212", "Area": "Runnymede", "Region_Code": "E12000008", "Region": "South East", "Electorate": 58272}, {"Area_Code": "E07000213", "Area": "Spelthorne", "Region_Code": "E12000008", "Region": "South East", "Electorate": 72674}, {"Area_Code": "E07000214", "Area": "Surrey Heath", "Region_Code": "E12000008", "Region": "South East", "Electorate": 65569}, {"Area_Code": "E07000215", "Area": "Tandridge", "Region_Code": "E12000008", "Region": "South East", "Electorate": 64044}, {"Area_Code": "E07000216", "Area": "Waverley", "Region_Code": "E12000008", "Region": "South East", "Electorate": 92291}, {"Area_Code": "E07000217", "Area": "Woking", "Region_Code": "E12000008", "Region": "South East", "Electorate": 71313}, {"Area_Code": "E07000223", "Area": "Adur", "Region_Code": "E12000008", "Region": "South East", "Electorate": 48755}, {"Area_Code": "E07000224", "Area": "Arun", "Region_Code": "E12000008", "Region": "South East", "Electorate": 117138}, {"Area_Code": "E07000225", "Area": "Chichester", "Region_Code": "E12000008", "Region": "South East", "Electorate": 91659}, {"Area_Code": "E07000226", "Area": "Crawley", "Region_Code": "E12000008", "Region": "South East", "Electorate": 73575}, {"Area_Code": "E07000227", "Area": "Horsham", "Region_Code": "E12000008", "Region": "South East", "Electorate": 104270}, {"Area_Code": "E07000228", "Area": "Mid Sussex", "Region_Code": "E12000008", "Region": "South East", "Electorate": 108416}, {"Area_Code": "E07000229", "Area": "Worthing", "Region_Code": "E12000008", "Region": "South East", "Electorate": 81384}, {"Area_Code": "E06000022", "Area": "Bath and North East Somerset", "Region_Code": "E12000009", "Region": "South West", "Electorate": 136522}, {"Area_Code": "E06000023", "Area": "Bristol, City of", "Region_Code": "E12000009", "Region": "South West", "Electorate": 312465}, {"Area_Code": "E06000024", "Area": "North Somerset", "Region_Code": "E12000009", "Region": "South West", "Electorate": 160860}, {"Area_Code": "E06000025", "Area": "South Gloucestershire", "Region_Code": "E12000009", "Region": "South West", "Electorate": 207793}, {"Area_Code": "E06000026", "Area": "Plymouth", "Region_Code": "E12000009", "Region": "South West", "Electorate": 186989}, {"Area_Code": "E06000027", "Area": "Torbay", "Region_Code": "E12000009", "Region": "South West", "Electorate": 102961}, {"Area_Code": "E06000028", "Area": "Bournemouth", "Region_Code": "E12000009", "Region": "South West", "Electorate": 132752}, {"Area_Code": "E06000029", "Area": "Poole", "Region_Code": "E12000009", "Region": "South West", "Electorate": 113421}, {"Area_Code": "E06000030", "Area": "Swindon", "Region_Code": "E12000009", "Region": "South West", "Electorate": 148960}, {"Area_Code": "E06000052", "Area": "Cornwall", "Region_Code": "E12000009", "Region": "South West", "Electorate": 419755}, {"Area_Code": "E06000053", "Area": "Isles of Scilly", "Region_Code": "E12000009", "Region": "South West", "Electorate": 1799}, {"Area_Code": "E06000054", "Area": "Wiltshire", "Region_Code": "E12000009", "Region": "South West", "Electorate": 366555}, {"Area_Code": "E07000040", "Area": "East Devon", "Region_Code": "E12000009", "Region": "South West", "Electorate": 112527}, {"Area_Code": "E07000041", "Area": "Exeter", "Region_Code": "E12000009", "Region": "South West", "Electorate": 86417}, {"Area_Code": "E07000042", "Area": "Mid Devon", "Region_Code": "E12000009", "Region": "South West", "Electorate": 60532}, {"Area_Code": "E07000043", "Area": "North Devon", "Region_Code": "E12000009", "Region": "South West", "Electorate": 75548}, {"Area_Code": "E07000044", "Area": "South Hams", "Region_Code": "E12000009", "Region": "South West", "Electorate": 69121}, {"Area_Code": "E07000045", "Area": "Teignbridge", "Region_Code": "E12000009", "Region": "South West", "Electorate": 103740}, {"Area_Code": "E07000046", "Area": "Torridge", "Region_Code": "E12000009", "Region": "South West", "Electorate": 52881}, {"Area_Code": "E07000047", "Area": "West Devon", "Region_Code": "E12000009", "Region": "South West", "Electorate": 43823}, {"Area_Code": "E07000048", "Area": "Christchurch", "Region_Code": "E12000009", "Region": "South West", "Electorate": 39176}, {"Area_Code": "E07000049", "Area": "East Dorset", "Region_Code": "E12000009", "Region": "South West", "Electorate": 71966}, {"Area_Code": "E07000050", "Area": "North Dorset", "Region_Code": "E12000009", "Region": "South West", "Electorate": 52980}, {"Area_Code": "E07000051", "Area": "Purbeck", "Region_Code": "E12000009", "Region": "South West", "Electorate": 36418}, {"Area_Code": "E07000052", "Area": "West Dorset", "Region_Code": "E12000009", "Region": "South West", "Electorate": 82071}, {"Area_Code": "E07000053", "Area": "Weymouth and Portland", "Region_Code": "E12000009", "Region": "South West", "Electorate": 50442}, {"Area_Code": "E07000078", "Area": "Cheltenham", "Region_Code": "E12000009", "Region": "South West", "Electorate": 87060}, {"Area_Code": "E07000079", "Area": "Cotswold", "Region_Code": "E12000009", "Region": "South West", "Electorate": 68734}, {"Area_Code": "E07000080", "Area": "Forest of Dean", "Region_Code": "E12000009", "Region": "South West", "Electorate": 66705}, {"Area_Code": "E07000081", "Area": "Gloucester", "Region_Code": "E12000009", "Region": "South West", "Electorate": 89661}, {"Area_Code": "E07000082", "Area": "Stroud", "Region_Code": "E12000009", "Region": "South West", "Electorate": 92631}, {"Area_Code": "E07000083", "Area": "Tewkesbury", "Region_Code": "E12000009", "Region": "South West", "Electorate": 67831}, {"Area_Code": "E07000187", "Area": "Mendip", "Region_Code": "E12000009", "Region": "South West", "Electorate": 85068}, {"Area_Code": "E07000188", "Area": "Sedgemoor", "Region_Code": "E12000009", "Region": "South West", "Electorate": 89714}, {"Area_Code": "E07000189", "Area": "South Somerset", "Region_Code": "E12000009", "Region": "South West", "Electorate": 126495}, {"Area_Code": "E07000190", "Area": "Taunton Deane", "Region_Code": "E12000009", "Region": "South West", "Electorate": 84164}, {"Area_Code": "E07000191", "Area": "West Somerset", "Region_Code": "E12000009", "Region": "South West", "Electorate": 27478}, {"Area_Code": "GI", "Area": "Gibraltar", "Region_Code": "E12000009", "Region": "South West", "Electorate": 24119}, {"Area_Code": "W06000001", "Area": "Isle of Anglesey", "Region_Code": "W92000004", "Region": "Wales", "Electorate": 51445}, {"Area_Code": "W06000002", "Area": "Gwynedd", "Region_Code": "W92000004", "Region": "Wales", "Electorate": 84575}, {"Area_Code": "W06000003", "Area": "Conwy", "Region_Code": "W92000004", "Region": "Wales", "Electorate": 91368}, {"Area_Code": "W06000004", "Area": "Denbighshire", "Region_Code": "W92000004", "Region": "Wales", "Electorate": 75362}, {"Area_Code": "W06000005", "Area": "Flintshire", "Region_Code": "W92000004", "Region": "Wales", "Electorate": 115964}, {"Area_Code": "W06000006", "Area": "Wrexham", "Region_Code": "W92000004", "Region": "Wales", "Electorate": 98384}, {"Area_Code": "W06000008", "Area": "Ceredigion", "Region_Code": "W92000004", "Region": "Wales", "Electorate": 53400}, {"Area_Code": "W06000009", "Area": "Pembrokeshire", "Region_Code": "W92000004", "Region": "Wales", "Electorate": 92155}, {"Area_Code": "W06000010", "Area": "Carmarthenshire", "Region_Code": "W92000004", "Region": "Wales", "Electorate": 139227}, {"Area_Code": "W06000011", "Area": "Swansea", "Region_Code": "W92000004", "Region": "Wales", "Electorate": 172941}, {"Area_Code": "W06000012", "Area": "Neath Port Talbot", "Region_Code": "W92000004", "Region": "Wales", "Electorate": 105766}, {"Area_Code": "W06000013", "Area": "Bridgend", "Region_Code": "W92000004", "Region": "Wales", "Electorate": 104492}, {"Area_Code": "W06000014", "Area": "Vale of Glamorgan", "Region_Code": "W92000004", "Region": "Wales", "Electorate": 95011}, {"Area_Code": "W06000015", "Area": "Cardiff", "Region_Code": "W92000004", "Region": "Wales", "Electorate": 243689}, {"Area_Code": "W06000016", "Area": "Rhondda Cynon Taf", "Region_Code": "W92000004", "Region": "Wales", "Electorate": 172890}, {"Area_Code": "W06000018", "Area": "Caerphilly", "Region_Code": "W92000004", "Region": "Wales", "Electorate": 130801}, {"Area_Code": "W06000019", "Area": "Blaenau Gwent", "Region_Code": "W92000004", "Region": "Wales", "Electorate": 51136}, {"Area_Code": "W06000020", "Area": "Torfaen", "Region_Code": "W92000004", "Region": "Wales", "Electorate": 68957}, {"Area_Code": "W06000021", "Area": "Monmouthshire", "Region_Code": "W92000004", "Region": "Wales", "Electorate": 71607}, {"Area_Code": "W06000022", "Area": "Newport", "Region_Code": "W92000004", "Region": "Wales", "Electorate": 104977}, {"Area_Code": "W06000023", "Area": "Powys", "Region_Code": "W92000004", "Region": "Wales", "Electorate": 103270}, {"Area_Code": "W06000024", "Area": "Merthyr Tydfil", "Region_Code": "W92000004", "Region": "Wales", "Electorate": 42855}, {"Area_Code": "E06000019", "Area": "Herefordshire, County of", "Region_Code": "E12000005", "Region": "West Midlands", "Electorate": 138247}, {"Area_Code": "E06000020", "Area": "Telford and Wrekin", "Region_Code": "E12000005", "Region": "West Midlands", "Electorate": 124338}, {"Area_Code": "E06000021", "Area": "Stoke-on-Trent", "Region_Code": "E12000005", "Region": "West Midlands", "Electorate": 179010}, {"Area_Code": "E06000051", "Area": "Shropshire", "Region_Code": "E12000005", "Region": "West Midlands", "Electorate": 236788}, {"Area_Code": "E07000192", "Area": "Cannock Chase", "Region_Code": "E12000005", "Region": "West Midlands", "Electorate": 75010}, {"Area_Code": "E07000193", "Area": "East Staffordshire", "Region_Code": "E12000005", "Region": "West Midlands", "Electorate": 83558}, {"Area_Code": "E07000194", "Area": "Lichfield", "Region_Code": "E12000005", "Region": "West Midlands", "Electorate": 80369}, {"Area_Code": "E07000195", "Area": "Newcastle-under-Lyme", "Region_Code": "E12000005", "Region": "West Midlands", "Electorate": 92816}, {"Area_Code": "E07000196", "Area": "South Staffordshire", "Region_Code": "E12000005", "Region": "West Midlands", "Electorate": 85777}, {"Area_Code": "E07000197", "Area": "Stafford", "Region_Code": "E12000005", "Region": "West Midlands", "Electorate": 99612}, {"Area_Code": "E07000198", "Area": "Staffordshire Moorlands", "Region_Code": "E12000005", "Region": "West Midlands", "Electorate": 79347}, {"Area_Code": "E07000199", "Area": "Tamworth", "Region_Code": "E12000005", "Region": "West Midlands", "Electorate": 56825}, {"Area_Code": "E07000218", "Area": "North Warwickshire", "Region_Code": "E12000005", "Region": "West Midlands", "Electorate": 49790}, {"Area_Code": "E07000219", "Area": "Nuneaton and Bedworth", "Region_Code": "E12000005", "Region": "West Midlands", "Electorate": 93978}, {"Area_Code": "E07000220", "Area": "Rugby", "Region_Code": "E12000005", "Region": "West Midlands", "Electorate": 74137}, {"Area_Code": "E07000221", "Area": "Stratford-on-Avon", "Region_Code": "E12000005", "Region": "West Midlands", "Electorate": 98014}, {"Area_Code": "E07000222", "Area": "Warwick", "Region_Code": "E12000005", "Region": "West Midlands", "Electorate": 103099}, {"Area_Code": "E07000234", "Area": "Bromsgrove", "Region_Code": "E12000005", "Region": "West Midlands", "Electorate": 74170}, {"Area_Code": "E07000235", "Area": "Malvern Hills", "Region_Code": "E12000005", "Region": "West Midlands", "Electorate": 60217}, {"Area_Code": "E07000236", "Area": "Redditch", "Region_Code": "E12000005", "Region": "West Midlands", "Electorate": 61038}, {"Area_Code": "E07000237", "Area": "Worcester", "Region_Code": "E12000005", "Region": "West Midlands", "Electorate": 73516}, {"Area_Code": "E07000238", "Area": "Wychavon", "Region_Code": "E12000005", "Region": "West Midlands", "Electorate": 94497}, {"Area_Code": "E07000239", "Area": "Wyre Forest", "Region_Code": "E12000005", "Region": "West Midlands", "Electorate": 77878}, {"Area_Code": "E08000025", "Area": "Birmingham", "Region_Code": "E12000005", "Region": "West Midlands", "Electorate": 707293}, {"Area_Code": "E08000026", "Area": "Coventry", "Region_Code": "E12000005", "Region": "West Midlands", "Electorate": 221389}, {"Area_Code": "E08000027", "Area": "Dudley", "Region_Code": "E12000005", "Region": "West Midlands", "Electorate": 244516}, {"Area_Code": "E08000028", "Area": "Sandwell", "Region_Code": "E12000005", "Region": "West Midlands", "Electorate": 221429}, {"Area_Code": "E08000029", "Area": "Solihull", "Region_Code": "E12000005", "Region": "West Midlands", "Electorate": 160425}, {"Area_Code": "E08000030", "Area": "Walsall", "Region_Code": "E12000005", "Region": "West Midlands", "Electorate": 194729}, {"Area_Code": "E08000031", "Area": "Wolverhampton", "Region_Code": "E12000005", "Region": "West Midlands", "Electorate": 174760}, {"Area_Code": "E06000010", "Area": "Kingston upon Hull, City of", "Region_Code": "E12000003", "Region": "Yorkshire and The Humber", "Electorate": 180230}, {"Area_Code": "E06000011", "Area": "East Riding of Yorkshire", "Region_Code": "E12000003", "Region": "Yorkshire and The Humber", "Electorate": 266047}, {"Area_Code": "E06000012", "Area": "North East Lincolnshire", "Region_Code": "E12000003", "Region": "Yorkshire and The Humber", "Electorate": 116302}, {"Area_Code": "E06000013", "Area": "North Lincolnshire", "Region_Code": "E12000003", "Region": "Yorkshire and The Humber", "Electorate": 123611}, {"Area_Code": "E06000014", "Area": "York", "Region_Code": "E12000003", "Region": "Yorkshire and The Humber", "Electorate": 155157}, {"Area_Code": "E07000163", "Area": "Craven", "Region_Code": "E12000003", "Region": "Yorkshire and The Humber", "Electorate": 44320}, {"Area_Code": "E07000164", "Area": "Hambleton", "Region_Code": "E12000003", "Region": "Yorkshire and The Humber", "Electorate": 70133}, {"Area_Code": "E07000165", "Area": "Harrogate", "Region_Code": "E12000003", "Region": "Yorkshire and The Humber", "Electorate": 119987}, {"Area_Code": "E07000166", "Area": "Richmondshire", "Region_Code": "E12000003", "Region": "Yorkshire and The Humber", "Electorate": 36794}, {"Area_Code": "E07000167", "Area": "Ryedale", "Region_Code": "E12000003", "Region": "Yorkshire and The Humber", "Electorate": 41529}, {"Area_Code": "E07000168", "Area": "Scarborough", "Region_Code": "E12000003", "Region": "Yorkshire and The Humber", "Electorate": 82900}, {"Area_Code": "E07000169", "Area": "Selby", "Region_Code": "E12000003", "Region": "Yorkshire and The Humber", "Electorate": 65278}, {"Area_Code": "E08000016", "Area": "Barnsley", "Region_Code": "E12000003", "Region": "Yorkshire and The Humber", "Electorate": 175809}, {"Area_Code": "E08000017", "Area": "Doncaster", "Region_Code": "E12000003", "Region": "Yorkshire and The Humber", "Electorate": 217432}, {"Area_Code": "E08000018", "Area": "Rotherham", "Region_Code": "E12000003", "Region": "Yorkshire and The Humber", "Electorate": 197623}, {"Area_Code": "E08000019", "Area": "Sheffield", "Region_Code": "E12000003", "Region": "Yorkshire and The Humber", "Electorate": 396406}, {"Area_Code": "E08000032", "Area": "Bradford", "Region_Code": "E12000003", "Region": "Yorkshire and The Humber", "Electorate": 342817}, {"Area_Code": "E08000033", "Area": "Calderdale", "Region_Code": "E12000003", "Region": "Yorkshire and The Humber", "Electorate": 149195}, {"Area_Code": "E08000034", "Area": "Kirklees", "Region_Code": "E12000003", "Region": "Yorkshire and The Humber", "Electorate": 307081}, {"Area_Code": "E08000035", "Area": "Leeds", "Region_Code": "E12000003", "Region": "Yorkshire and The Humber", "Electorate": 543033}, {"Area_Code": "E08000036", "Area": "Wakefield", "Region_Code": "E12000003", "Region": "Yorkshire and The Humber", "Electorate": 246096}]